{"features": [{"properties": {"channels": [{"name": "mmi", "amplitudes": [{"flag": "0", "value": 5.2, "sigma": 0.0, "name": "mmi", "units": "intensity"}]}], "code": "92008", "name": "ZIP Code 92008 (Intensity V, 8 responses)", "instrumentType": "OBSERVED", "source": "CIIM", "intensity_flag": "", "distances": {"rhypo": 165.116, "ry0": 156.891, "rjb": 160.046, "rx": 51.974, "rrup": 161.041}, "distance": 161.041, "pgm_from_mmi": {"sa(3.0)": {"value": 2.1164, "units": "%g", "ln_sigma": 1.4737}, "sa(1.0)": {"value": 9.8312, "units": "%g", "ln_sigma": 1.0822}, "sa(0.3)": {"value": 15.0476, "units": "%g", "ln_sigma": 1.0131}, "pgv": {"value": 6.7274, "units": "cm/s", "ln_sigma": 0.875}, "pga": {"value": 6.1881, "units": "%g", "ln_sigma": 0.8059}}, "location": "", "station_type": "macroseismic", "pgv": 6.7274, "commType": "UNK", "pga": 6.1881, "intensity": 5.2, "intensity_stddev": 0.3, "network": "CIIM", "predictions": {"sa(1.0)": {"ln_phi": 0.6552, "units": "%g", "ln_tau": 0.3698, "value": 3.1262, "ln_bias": 0.3455, "ln_sigma": 0.7523}, "pgv": {"ln_phi": 0.5566, "units": "cm/s", "ln_tau": 0.3682, "value": 2.7358, "ln_bias": 0.1934, "ln_sigma": 0.6674}, "pga": {"ln_phi": 0.5282, "units": "%g", "ln_tau": 0.3401, "value": 1.9403, "ln_bias": 0.312, "ln_sigma": 0.6282}, "mmi": {"phi": 0.7233, "units": "intensity", "bias": 0.4064, "value": 4.1165, "sigma": 0.7605, "tau": 0.2351}, "sa(3.0)": {"ln_phi": 0.6547, "units": "%g", "ln_tau": 0.4121, "value": 0.8058, "ln_bias": 0.0504, "ln_sigma": 0.7736}, "sa(0.3)": {"ln_phi": 0.6043, "units": "%g", "ln_tau": 0.3259, "value": 5.4198, "ln_bias": 0.2362, "ln_sigma": 0.6865}}}, "geometry": {"type": "Point", "coordinates": [-117.303718, 33.150967]}, "type": "Feature", "id": "CIIM.92008"}, {"properties": {"channels": [{"name": "mmi", "amplitudes": [{"flag": "0", "value": 7.2, "sigma": 0.0, "name": "mmi", "units": "intensity"}]}], "code": "90290", "name": "ZIP Code 90290 (Intensity VII, 20 responses)", "instrumentType": "OBSERVED", "source": "CIIM", "intensity_flag": "", "distances": {"rhypo": 22.923, "ry0": 0.0, "rjb": 9.738, "rx": 27.504, "rrup": 21.73}, "distance": 21.73, "pgm_from_mmi": {"sa(3.0)": {"value": 6.6883, "units": "%g", "ln_sigma": 1.4737}, "sa(1.0)": {"value": 34.2992, "units": "%g", "ln_sigma": 1.0822}, "sa(0.3)": {"value": 64.5241, "units": "%g", "ln_sigma": 1.0131}, "pgv": {"value": 28.8908, "units": "cm/s", "ln_sigma": 0.875}, "pga": {"value": 37.3161, "units": "%g", "ln_sigma": 0.8059}}, "location": "", "station_type": "macroseismic", "pgv": 28.8908, "commType": "UNK", "pga": 37.3161, "intensity": 7.2, "intensity_stddev": 0.3, "network": "CIIM", "predictions": {"sa(1.0)": {"ln_phi": 0.6409, "units": "%g", "ln_tau": 0.3639, "value": 31.799, "ln_bias": 0.3443, "ln_sigma": 0.737}, "pgv": {"ln_phi": 0.5462, "units": "cm/s", "ln_tau": 0.3687, "value": 27.5425, "ln_bias": 0.1934, "ln_sigma": 0.6589}, "pga": {"ln_phi": 0.4873, "units": "%g", "ln_tau": 0.299, "value": 31.182, "ln_bias": 0.3056, "ln_sigma": 0.5717}, "mmi": {"phi": 0.9791, "units": "intensity", "bias": 0.5429, "value": 7.1344, "sigma": 1.1021, "tau": 0.5059}, "sa(3.0)": {"ln_phi": 0.6461, "units": "%g", "ln_tau": 0.4162, "value": 6.4855, "ln_bias": 0.0505, "ln_sigma": 0.7685}, "sa(0.3)": {"ln_phi": 0.5545, "units": "%g", "ln_tau": 0.2824, "value": 78.6682, "ln_bias": 0.2265, "ln_sigma": 0.6223}}}, "geometry": {"type": "Point", "coordinates": [-118.611577, 34.101868]}, "type": "Feature", "id": "CIIM.90290"}, {"properties": {"channels": [{"name": "UNK", "amplitudes": [{"flag": "0", "value": 2.4669, "name": "sa(3.0)", "ln_sigma": 0.0, "units": "%g"}, {"flag": "0", "value": 10.058, "name": "pgv", "ln_sigma": 0.0, "units": "cm/s"}, {"flag": "0", "value": 34.1726, "name": "sa(0.3)", "ln_sigma": 0.0, "units": "%g"}, {"flag": "0", "value": 13.6166, "name": "sa(1.0)", "ln_sigma": 0.0, "units": "%g"}, {"flag": "0", "value": 15.6279, "name": "pga", "ln_sigma": 0.0, "units": "%g"}]}], "code": "BAP", "name": "BUENA PARK", "instrumentType": "OBSERVED", "source": "HI", "intensity_flag": "", "distances": {"rhypo": 65.105, "ry0": 59.325, "rjb": 58.973, "rx": 22.463, "rrup": 61.763}, "mmi_from_pgm": {"sa(3.0)": {"value": 5.64, "sigma": 0.89}, "sa(1.0)": {"value": 5.81, "sigma": 0.75}, "sa(0.3)": {"value": 6.33, "sigma": 0.82}, "pgv": {"value": 5.75, "sigma": 0.63}, "pga": {"value": 6.26, "sigma": 0.66}}, "distance": 61.763, "location": "", "station_type": "seismic", "pgv": 10.058, "commType": "UNK", "pga": 15.6279, "intensity": 5.8, "intensity_stddev": 0.63, "network": "HI", "predictions": {"sa(1.0)": {"ln_phi": 0.6311, "units": "%g", "ln_tau": 0.3562, "value": 11.9806, "ln_bias": 0.3427, "ln_sigma": 0.7247}, "pgv": {"ln_phi": 0.4998, "units": "cm/s", "ln_tau": 0.3253, "value": 9.8702, "ln_bias": 0.1894, "ln_sigma": 0.5964}, "pga": {"ln_phi": 0.4793, "units": "%g", "ln_tau": 0.3079, "value": 9.1007, "ln_bias": 0.3071, "ln_sigma": 0.5697}, "sa(3.0)": {"ln_phi": 0.6324, "units": "%g", "ln_tau": 0.3946, "value": 2.8631, "ln_bias": 0.0499, "ln_sigma": 0.7455}, "sa(0.3)": {"ln_phi": 0.5558, "units": "%g", "ln_tau": 0.3008, "value": 26.1775, "ln_bias": 0.231, "ln_sigma": 0.6319}, "mmi": {"phi": 0.9314, "units": "intensity", "bias": 0.529, "value": 5.7261, "sigma": 1.0328, "tau": 0.4464}}}, "geometry": {"type": "Point", "coordinates": [-118.02, 33.847]}, "type": "Feature", "id": "HI.BAP"}, {"properties": {"channels": [{"name": "mmi", "amplitudes": [{"flag": "0", "value": 6.0, "sigma": 0.0, "name": "mmi", "units": "intensity"}]}], "code": "91750", "name": "ZIP Code 91750 (Intensity VI, 17 responses)", "instrumentType": "OBSERVED", "source": "CIIM", "intensity_flag": "", "distances": {"rhypo": 73.963, "ry0": 62.588, "rjb": 64.89, "rx": -16.679, "rrup": 65.137}, "distance": 65.137, "pgm_from_mmi": {"sa(3.0)": {"value": 3.288, "units": "%g", "ln_sigma": 1.4737}, "sa(1.0)": {"value": 15.9238, "units": "%g", "ln_sigma": 1.0822}, "sa(0.3)": {"value": 28.234, "units": "%g", "ln_sigma": 1.0131}, "pgv": {"value": 12.0507, "units": "cm/s", "ln_sigma": 0.875}, "pga": {"value": 13.066, "units": "%g", "ln_sigma": 0.8059}}, "location": "", "station_type": "macroseismic", "pgv": 12.0507, "commType": "UNK", "pga": 13.066, "intensity": 6.0, "intensity_stddev": 0.3, "network": "CIIM", "predictions": {"sa(1.0)": {"ln_phi": 0.6511, "units": "%g", "ln_tau": 0.3783, "value": 6.3263, "ln_bias": 0.3472, "ln_sigma": 0.753}, "pgv": {"ln_phi": 0.5318, "units": "cm/s", "ln_tau": 0.3447, "value": 6.1496, "ln_bias": 0.1913, "ln_sigma": 0.6338}, "pga": {"ln_phi": 0.5165, "units": "%g", "ln_tau": 0.3389, "value": 6.7292, "ln_bias": 0.3118, "ln_sigma": 0.6178}, "mmi": {"phi": 0.9642, "units": "intensity", "bias": 0.5358, "value": 5.0767, "sigma": 1.074, "tau": 0.4731}, "sa(3.0)": {"ln_phi": 0.6408, "units": "%g", "ln_tau": 0.4077, "value": 1.4682, "ln_bias": 0.0503, "ln_sigma": 0.7595}, "sa(0.3)": {"ln_phi": 0.5984, "units": "%g", "ln_tau": 0.3446, "value": 16.2344, "ln_bias": 0.2395, "ln_sigma": 0.6906}}}, "geometry": {"type": "Point", "coordinates": [-117.762634, 34.128459]}, "type": "Feature", "id": "CIIM.91750"}, {"properties": {"channels": [{"name": "mmi", "amplitudes": [{"flag": "0", "value": 7.8, "sigma": 0.0, "name": "mmi", "units": "intensity"}]}], "code": "91302", "name": "ZIP Code 91302 (Intensity VIII, 35 responses)", "instrumentType": "OBSERVED", "source": "CIIM", "intensity_flag": "", "distances": {"rhypo": 24.084, "ry0": 0.0, "rjb": 10.614, "rx": 28.38, "rrup": 22.274}, "distance": 22.274, "pgm_from_mmi": {"sa(3.0)": {"value": 10.6337, "units": "%g", "ln_sigma": 1.4737}, "sa(1.0)": {"value": 55.4618, "units": "%g", "ln_sigma": 1.0822}, "sa(0.3)": {"value": 89.7623, "units": "%g", "ln_sigma": 1.0131}, "pgv": {"value": 44.7335, "units": "cm/s", "ln_sigma": 0.875}, "pga": {"value": 53.8393, "units": "%g", "ln_sigma": 0.8059}}, "location": "", "station_type": "macroseismic", "pgv": 44.7335, "commType": "UNK", "pga": 53.8393, "intensity": 7.8, "intensity_stddev": 0.3, "network": "CIIM", "predictions": {"sa(1.0)": {"ln_phi": 0.6417, "units": "%g", "ln_tau": 0.3645, "value": 29.5883, "ln_bias": 0.3445, "ln_sigma": 0.738}, "pgv": {"ln_phi": 0.5444, "units": "cm/s", "ln_tau": 0.3656, "value": 25.9787, "ln_bias": 0.1932, "ln_sigma": 0.6558}, "pga": {"ln_phi": 0.489, "units": "%g", "ln_tau": 0.3012, "value": 29.8731, "ln_bias": 0.306, "ln_sigma": 0.5743}, "mmi": {"phi": 0.9773, "units": "intensity", "bias": 0.5421, "value": 7.0542, "sigma": 1.0986, "tau": 0.5017}, "sa(3.0)": {"ln_phi": 0.6441, "units": "%g", "ln_tau": 0.4131, "value": 6.026, "ln_bias": 0.0504, "ln_sigma": 0.7651}, "sa(0.3)": {"ln_phi": 0.5587, "units": "%g", "ln_tau": 0.2876, "value": 74.8679, "ln_bias": 0.2279, "ln_sigma": 0.6284}}}, "geometry": {"type": "Point", "coordinates": [-118.672365, 34.123996]}, "type": "Feature", "id": "CIIM.91302"}, {"properties": {"channels": [{"name": "mmi", "amplitudes": [{"flag": "0", "value": 5.1, "sigma": 0.0, "name": "mmi", "units": "intensity"}]}], "code": "92311", "name": "ZIP Code 92311 (Intensity V, 3 responses)", "instrumentType": "OBSERVED", "source": "CIIM", "intensity_flag": "", "distances": {"rhypo": 154.548, "ry0": 75.394, "rjb": 140.975, "rx": -118.888, "rrup": 141.036}, "distance": 141.036, "pgm_from_mmi": {"sa(3.0)": {"value": 1.9119, "units": "%g", "ln_sigma": 1.4737}, "sa(1.0)": {"value": 8.8795, "units": "%g", "ln_sigma": 1.0822}, "sa(0.3)": {"value": 13.7641, "units": "%g", "ln_sigma": 1.0131}, "pgv": {"value": 6.2546, "units": "cm/s", "ln_sigma": 0.875}, "pga": {"value": 6.0313, "units": "%g", "ln_sigma": 0.8059}}, "location": "", "station_type": "macroseismic", "pgv": 6.2546, "commType": "UNK", "pga": 6.0313, "intensity": 5.1, "intensity_stddev": 0.3, "network": "CIIM", "predictions": {"sa(1.0)": {"ln_phi": 0.6559, "units": "%g", "ln_tau": 0.3768, "value": 1.5966, "ln_bias": 0.3469, "ln_sigma": 0.7564}, "pgv": {"ln_phi": 0.5589, "units": "cm/s", "ln_tau": 0.3752, "value": 1.7703, "ln_bias": 0.1939, "ln_sigma": 0.6732}, "pga": {"ln_phi": 0.5415, "units": "%g", "ln_tau": 0.3647, "value": 1.7053, "ln_bias": 0.3149, "ln_sigma": 0.6529}, "mmi": {"phi": 0.724, "units": "intensity", "bias": 0.4113, "value": 3.8386, "sigma": 0.7626, "tau": 0.2396}, "sa(3.0)": {"ln_phi": 0.6409, "units": "%g", "ln_tau": 0.4013, "value": 0.3999, "ln_bias": 0.0501, "ln_sigma": 0.7562}, "sa(0.3)": {"ln_phi": 0.6115, "units": "%g", "ln_tau": 0.3451, "value": 3.524, "ln_bias": 0.2396, "ln_sigma": 0.7022}}}, "geometry": {"type": "Point", "coordinates": [-117.042913, 34.839973]}, "type": "Feature", "id": "CIIM.92311"}, {"properties": {"channels": [{"name": "mmi", "amplitudes": [{"flag": "0", "value": 6.9, "sigma": 0.0, "name": "mmi", "units": "intensity"}]}], "code": "91801", "name": "ZIP Code 91801 (Intensity VII, 13 responses)", "instrumentType": "OBSERVED", "source": "CIIM", "intensity_flag": "", "distances": {"rhypo": 43.769, "ry0": 36.422, "rjb": 36.284, "rx": 4.897, "rrup": 37.22}, "distance": 37.22, "pgm_from_mmi": {"sa(3.0)": {"value": 5.8872, "units": "%g", "ln_sigma": 1.4737}, "sa(1.0)": {"value": 29.6022, "units": "%g", "ln_sigma": 1.0822}, "sa(0.3)": {"value": 50.5112, "units": "%g", "ln_sigma": 1.0131}, "pgv": {"value": 23.2179, "units": "cm/s", "ln_sigma": 0.875}, "pga": {"value": 26.6924, "units": "%g", "ln_sigma": 0.8059}}, "location": "", "station_type": "macroseismic", "pgv": 23.2179, "commType": "UNK", "pga": 26.6924, "intensity": 6.9, "intensity_stddev": 0.3, "network": "CIIM", "predictions": {"sa(1.0)": {"ln_phi": 0.6504, "units": "%g", "ln_tau": 0.3778, "value": 12.0778, "ln_bias": 0.3471, "ln_sigma": 0.7522}, "pgv": {"ln_phi": 0.5326, "units": "cm/s", "ln_tau": 0.3463, "value": 11.631, "ln_bias": 0.1915, "ln_sigma": 0.6353}, "pga": {"ln_phi": 0.5071, "units": "%g", "ln_tau": 0.3263, "value": 12.9028, "ln_bias": 0.3101, "ln_sigma": 0.6031}, "mmi": {"phi": 0.965, "units": "intensity", "bias": 0.5363, "value": 5.9514, "sigma": 1.0757, "tau": 0.4753}, "sa(3.0)": {"ln_phi": 0.6428, "units": "%g", "ln_tau": 0.411, "value": 2.744, "ln_bias": 0.0504, "ln_sigma": 0.763}, "sa(0.3)": {"ln_phi": 0.5862, "units": "%g", "ln_tau": 0.3275, "value": 31.7021, "ln_bias": 0.2365, "ln_sigma": 0.6715}}}, "geometry": {"type": "Point", "coordinates": [-118.128163, 34.090557]}, "type": "Feature", "id": "CIIM.91801"}, {"properties": {"channels": [{"name": "mmi", "amplitudes": [{"flag": "0", "value": 6.4, "sigma": 0.0, "name": "mmi", "units": "intensity"}]}], "code": "91006", "name": "ZIP Code 91006 (Intensity VI, 21 responses)", "instrumentType": "OBSERVED", "source": "CIIM", "intensity_flag": "", "distances": {"rhypo": 50.836, "ry0": 41.573, "rjb": 41.852, "rx": -4.319, "rrup": 42.261}, "distance": 42.261, "pgm_from_mmi": {"sa(3.0)": {"value": 4.1138, "units": "%g", "ln_sigma": 1.4737}, "sa(1.0)": {"value": 20.3344, "units": "%g", "ln_sigma": 1.0822}, "sa(0.3)": {"value": 37.5509, "units": "%g", "ln_sigma": 1.0131}, "pgv": {"value": 16.1285, "units": "cm/s", "ln_sigma": 0.875}, "pga": {"value": 18.8819, "units": "%g", "ln_sigma": 0.8059}}, "location": "", "station_type": "macroseismic", "pgv": 16.1285, "commType": "UNK", "pga": 18.8819, "intensity": 6.4, "intensity_stddev": 0.3, "network": "CIIM", "predictions": {"sa(1.0)": {"ln_phi": 0.6484, "units": "%g", "ln_tau": 0.3748, "value": 11.3424, "ln_bias": 0.3465, "ln_sigma": 0.749}, "pgv": {"ln_phi": 0.5299, "units": "cm/s", "ln_tau": 0.3427, "value": 10.6824, "ln_bias": 0.1911, "ln_sigma": 0.6311}, "pga": {"ln_phi": 0.5059, "units": "%g", "ln_tau": 0.3246, "value": 11.4983, "ln_bias": 0.3098, "ln_sigma": 0.601}, "mmi": {"phi": 0.9622, "units": "intensity", "bias": 0.5351, "value": 5.8346, "sigma": 1.071, "tau": 0.4703}, "sa(3.0)": {"ln_phi": 0.6417, "units": "%g", "ln_tau": 0.4093, "value": 2.6028, "ln_bias": 0.0503, "ln_sigma": 0.7612}, "sa(0.3)": {"ln_phi": 0.5847, "units": "%g", "ln_tau": 0.326, "value": 28.8979, "ln_bias": 0.2362, "ln_sigma": 0.6694}}}, "geometry": {"type": "Point", "coordinates": [-118.02738, 34.135879]}, "type": "Feature", "id": "CIIM.91006"}, {"properties": {"channels": [{"name": "mmi", "amplitudes": [{"flag": "0", "value": 5.6, "sigma": 0.0, "name": "mmi", "units": "intensity"}]}], "code": "92627", "name": "ZIP Code 92627 (Intensity VI, 26 responses)", "instrumentType": "OBSERVED", "source": "CIIM", "intensity_flag": "", "distances": {"rhypo": 86.55, "ry0": 78.923, "rjb": 80.493, "rx": 36.195, "rrup": 82.817}, "distance": 82.817, "pgm_from_mmi": {"sa(3.0)": {"value": 2.5339, "units": "%g", "ln_sigma": 1.4737}, "sa(1.0)": {"value": 12.0708, "units": "%g", "ln_sigma": 1.0822}, "sa(0.3)": {"value": 21.8292, "units": "%g", "ln_sigma": 1.0131}, "pgv": {"value": 9.0039, "units": "cm/s", "ln_sigma": 0.875}, "pga": {"value": 9.5341, "units": "%g", "ln_sigma": 0.8059}}, "location": "", "station_type": "macroseismic", "pgv": 9.0039, "commType": "UNK", "pga": 9.5341, "intensity": 5.6, "intensity_stddev": 0.3, "network": "CIIM", "predictions": {"sa(1.0)": {"ln_phi": 0.6371, "units": "%g", "ln_tau": 0.3607, "value": 8.1036, "ln_bias": 0.3437, "ln_sigma": 0.7321}, "pgv": {"ln_phi": 0.5128, "units": "cm/s", "ln_tau": 0.3317, "value": 6.8319, "ln_bias": 0.19, "ln_sigma": 0.6107}, "pga": {"ln_phi": 0.4954, "units": "%g", "ln_tau": 0.3204, "value": 6.2171, "ln_bias": 0.3092, "ln_sigma": 0.59}, "mmi": {"phi": 0.9446, "units": "intensity", "bias": 0.5314, "value": 5.2212, "sigma": 1.0485, "tau": 0.4552}, "sa(3.0)": {"ln_phi": 0.6343, "units": "%g", "ln_tau": 0.3976, "value": 1.9351, "ln_bias": 0.05, "ln_sigma": 0.7486}, "sa(0.3)": {"ln_phi": 0.5745, "units": "%g", "ln_tau": 0.3191, "value": 17.6321, "ln_bias": 0.2349, "ln_sigma": 0.6572}}}, "geometry": {"type": "Point", "coordinates": [-117.920362, 33.648212]}, "type": "Feature", "id": "CIIM.92627"}, {"properties": {"channels": [{"name": "UNK", "amplitudes": [{"flag": "0", "value": 14.4351, "name": "sa(3.0)", "ln_sigma": 0.0, "units": "%g"}, {"flag": "0", "value": 65.816, "name": "pgv", "ln_sigma": 0.0, "units": "cm/s"}, {"flag": "0", "value": 111.3202, "name": "sa(0.3)", "ln_sigma": 0.0, "units": "%g"}, {"flag": "0", "value": 51.5932, "name": "sa(1.0)", "ln_sigma": 0.0, "units": "%g"}, {"flag": "0", "value": 41.2314, "name": "pga", "ln_sigma": 0.0, "units": "%g"}]}], "code": "CPC", "name": "CANOGA PARK", "instrumentType": "OBSERVED", "source": "HI", "intensity_flag": "", "distances": {"rhypo": 19.253, "ry0": 0.0, "rjb": 0.0, "rx": 17.044, "rrup": 15.267}, "mmi_from_pgm": {"sa(3.0)": {"value": 8.29, "sigma": 0.89}, "sa(1.0)": {"value": 7.79, "sigma": 0.75}, "sa(0.3)": {"value": 8.09, "sigma": 0.82}, "pgv": {"value": 8.33, "sigma": 0.63}, "pga": {"value": 7.2, "sigma": 0.66}}, "distance": 15.267, "location": "", "station_type": "seismic", "pgv": 65.816, "commType": "UNK", "pga": 41.2314, "intensity": 8.3, "intensity_stddev": 0.63, "network": "HI", "predictions": {"sa(1.0)": {"ln_phi": 0.634, "units": "%g", "ln_tau": 0.364, "value": 59.411, "ln_bias": 0.3444, "ln_sigma": 0.731}, "pgv": {"ln_phi": 0.5571, "units": "cm/s", "ln_tau": 0.3975, "value": 47.4979, "ln_bias": 0.1954, "ln_sigma": 0.6843}, "pga": {"ln_phi": 0.4713, "units": "%g", "ln_tau": 0.2879, "value": 47.6709, "ln_bias": 0.3034, "ln_sigma": 0.5523}, "sa(3.0)": {"ln_phi": 0.6669, "units": "%g", "ln_tau": 0.4479, "value": 12.4762, "ln_bias": 0.0513, "ln_sigma": 0.8033}, "sa(0.3)": {"ln_phi": 0.5175, "units": "%g", "ln_tau": 0.2444, "value": 120.2452, "ln_bias": 0.2146, "ln_sigma": 0.5723}, "mmi": {"phi": 0.9906, "units": "intensity", "bias": 0.55, "value": 7.8823, "sigma": 1.1309, "tau": 0.5455}}}, "geometry": {"type": "Point", "coordinates": [-118.61, 34.212]}, "type": "Feature", "id": "HI.CPC"}, {"properties": {"channels": [{"name": "mmi", "amplitudes": [{"flag": "0", "value": 4.7, "sigma": 0.0, "name": "mmi", "units": "intensity"}]}], "code": "92026", "name": "ZIP Code 92026 (Intensity V, 9 responses)", "instrumentType": "OBSERVED", "source": "CIIM", "intensity_flag": "", "distances": {"rhypo": 173.08, "ry0": 167.952, "rjb": 168.528, "rx": 36.483, "rrup": 169.448}, "distance": 169.448, "pgm_from_mmi": {"sa(3.0)": {"value": 1.4577, "units": "%g", "ln_sigma": 1.4737}, "sa(1.0)": {"value": 6.6669, "units": "%g", "ln_sigma": 1.0822}, "sa(0.3)": {"value": 7.4776, "units": "%g", "ln_sigma": 1.0131}, "pgv": {"value": 4.6733, "units": "cm/s", "ln_sigma": 0.875}, "pga": {"value": 4.4702, "units": "%g", "ln_sigma": 0.8059}}, "location": "", "station_type": "macroseismic", "pgv": 4.6733, "commType": "UNK", "pga": 4.4702, "intensity": 4.7, "intensity_stddev": 0.3, "network": "CIIM", "predictions": {"sa(1.0)": {"ln_phi": 0.6613, "units": "%g", "ln_tau": 0.3771, "value": 1.4368, "ln_bias": 0.347, "ln_sigma": 0.7612}, "pgv": {"ln_phi": 0.5708, "units": "cm/s", "ln_tau": 0.3869, "value": 1.5331, "ln_bias": 0.1947, "ln_sigma": 0.6895}, "pga": {"ln_phi": 0.5447, "units": "%g", "ln_tau": 0.3622, "value": 1.2691, "ln_bias": 0.3146, "ln_sigma": 0.6542}, "mmi": {"phi": 0.7278, "units": "intensity", "bias": 0.4191, "value": 3.7468, "sigma": 0.7686, "tau": 0.247}, "sa(3.0)": {"ln_phi": 0.6525, "units": "%g", "ln_tau": 0.404, "value": 0.3729, "ln_bias": 0.0502, "ln_sigma": 0.7675}, "sa(0.3)": {"ln_phi": 0.6162, "units": "%g", "ln_tau": 0.3419, "value": 2.7765, "ln_bias": 0.239, "ln_sigma": 0.7047}}}, "geometry": {"type": "Point", "coordinates": [-117.113667, 33.214235]}, "type": "Feature", "id": "CIIM.92026"}, {"properties": {"channels": [{"name": "mmi", "amplitudes": [{"flag": "0", "value": 5.4, "sigma": 0.0, "name": "mmi", "units": "intensity"}]}], "code": "92549", "name": "ZIP Code 92549 (Intensity V, 4 responses)", "instrumentType": "OBSERVED", "source": "CIIM", "intensity_flag": "", "distances": {"rhypo": 169.944, "ry0": 159.739, "rjb": 163.522, "rx": -33.599, "rrup": 163.555}, "distance": 163.555, "pgm_from_mmi": {"sa(3.0)": {"value": 2.4735, "units": "%g", "ln_sigma": 1.4737}, "sa(1.0)": {"value": 11.5534, "units": "%g", "ln_sigma": 1.0822}, "sa(0.3)": {"value": 17.6969, "units": "%g", "ln_sigma": 1.0131}, "pgv": {"value": 7.7829, "u